[
  {
    "code": "76351", 
    "name": "Le Havre", 
    "zipcode": "76620"
  }, 
  {
    "code": "06088", 
    "name": "Nice", 
    "zipcode": "06833"
  }, 
  {
    "code": "15140", 
    "name": "Naucelles", 
    "zipcode": "15250"
  }, 
  {
    "code": "06004", 
    "name": "Antibes", 
    "zipcode": "06634"
  }, 
  {
    "code": "2B201", 
    "name": "Pancheraccia", 
    "zipcode": "20270"
  }, 
  {
    "code": "76540", 
    "name": "Rouen", 
    "zipcode": "76945"
  }, 
  {
    "code": "33063", 
    "name": "Bordeaux", 
    "zipcode": "33998"
  }, 
  {
    "code": "64545", 
    "name": "Urrugne", 
    "zipcode": "64700"
  }, 
  {
    "code": "07103", 
    "name": "Intres", 
    "zipcode": "07320"
  }, 
  {
    "code": "06029", 
    "name": "Cannes", 
    "zipcode": "06414"
  }, 
  {
    "code": "97101", 
    "name": "Les Abymes", 
    "zipcode": "97139"
  }, 
  {
    "code": "67066", 
    "name": "La Broque", 
    "zipcode": "67570"
  }, 
  {
    "code": "59009", 
    "name": "Villeneuve-d'Ascq", 
    "zipcode": "59869"
  }, 
  {
    "code": "37261", 
    "name": "Tours", 
    "zipcode": "37942"
  }, 
  {
    "code": "65059", 
    "name": "Bagn\u00e8res-de-Bigorre", 
    "zipcode": "65710"
  }, 
  {
    "code": "66136", 
    "name": "Perpignan", 
    "zipcode": "66987"
  }, 
  {
    "code": "50129", 
    "name": "Cherbourg-Octeville", 
    "zipcode": "50652"
  }, 
  {
    "code": "59350", 
    "name": "Lille", 
    "zipcode": "59998"
  }, 
  {
    "code": "2B033", 
    "name": "Bastia", 
    "zipcode": "20611"
  }, 
  {
    "code": "39274", 
    "name": "Lajoux", 
    "zipcode": "39310"
  }, 
  {
    "code": "45234", 
    "name": "Orl\u00e9ans", 
    "zipcode": "45980"
  }, 
  {
    "code": "57463", 
    "name": "Metz", 
    "zipcode": "57778"
  }, 
  {
    "code": "67482", 
    "name": "Strasbourg", 
    "zipcode": "67999"
  }, 
  {
    "code": "59183", 
    "name": "Dunkerque", 
    "zipcode": "59952"
  }, 
  {
    "code": "95127", 
    "name": "Cergy", 
    "zipcode": "95800"
  }, 
  {
    "code": "94068", 
    "name": "Saint-Maur-des-Foss\u00e9s", 
    "zipcode": "94210"
  }, 
  {
    "code": "63113", 
    "name": "Clermont-Ferrand", 
    "zipcode": "63972"
  }, 
  {
    "code": "93066", 
    "name": "Saint-Denis", 
    "zipcode": "93528"
  }, 
  {
    "code": "83118", 
    "name": "Saint-Rapha\u00ebl", 
    "zipcode": "83707"
  }, 
  {
    "code": "42218", 
    "name": "Saint-\u00c9tienne", 
    "zipcode": "42969"
  }, 
  {
    "code": "31555", 
    "name": "Toulouse", 
    "zipcode": "31999"
  }, 
  {
    "code": "30189", 
    "name": "N\u00eemes", 
    "zipcode": "30975"
  }, 
  {
    "code": "49007", 
    "name": "Angers", 
    "zipcode": "49949"
  }, 
  {
    "code": "92048", 
    "name": "Meudon", 
    "zipcode": "92360"
  }, 
  {
    "code": "68026", 
    "name": "Bennwihr", 
    "zipcode": "68630"
  }, 
  {
    "code": "13001", 
    "name": "Aix-en-Provence", 
    "zipcode": "13859"
  }, 
  {
    "code": "35238", 
    "name": "Rennes", 
    "zipcode": "35998"
  }, 
  {
    "code": "95500", 
    "name": "Pontoise", 
    "zipcode": "95300"
  }, 
  {
    "code": "83061", 
    "name": "Fr\u00e9jus", 
    "zipcode": "83618"
  }, 
  {
    "code": "44109", 
    "name": "Nantes", 
    "zipcode": "44978"
  }, 
  {
    "code": "38185", 
    "name": "Grenoble", 
    "zipcode": "38900"
  }, 
  {
    "code": "34172", 
    "name": "Montpellier", 
    "zipcode": "34967"
  }, 
  {
    "code": "87085", 
    "name": "Limoges", 
    "zipcode": "87950"
  }, 
  {
    "code": "72181", 
    "name": "Le Mans", 
    "zipcode": "72908"
  }, 
  {
    "code": "83137", 
    "name": "Toulon", 
    "zipcode": "83800"
  }, 
  {
    "code": "97209", 
    "name": "Fort-de-France", 
    "zipcode": "97200"
  }, 
  {
    "code": "68224", 
    "name": "Mulhouse", 
    "zipcode": "68968"
  }, 
  {
    "code": "60048", 
    "name": "Baugy", 
    "zipcode": "60190"
  }, 
  {
    "code": "06069", 
    "name": "Grasse", 
    "zipcode": "06520"
  }
]